NORAD_CAT_ID,OBJECT_NAME,OBJECT_TYPE,EPOCH,MEAN_MOTION,ECCENTRICITY,INCLINATION,RA_OF_ASC_NODE,ARG_OF_PERICENTER,MEAN_ANOMALY,BSTAR,MEAN_MOTION_DOT,MEAN_MOTION_DDOT,TLE_LINE0,TLE_LINE1,TLE_LINE2,SEMIMAJOR_AXIS,PERIOD,APOGEE,PERIGEE,DECAYED
55943.0,STARLINK-5932,PAYLOAD,2023-05-29 20:51:54,15.69931806,0.0003506,69.997,335.5385,268.7567,91.3227,1.5889e-05,1.699e-05,0.0,0 STARLINK-5932,1 55943U 23037AF  23149.86937956  .00001699  00000-0  15889-4 0  9993,2 55943  69.9970 335.5385 0003506 268.7567  91.3227 15.69931806 11661,6737.229,91.724,361.456,356.732,0.0
55943.0,STARLINK-5932,PAYLOAD,2023-05-29 22:23:39,15.69932334,0.000373,69.9966,335.3588,272.0007,88.0761,1.4115e-05,1.485e-05,0.0,0 STARLINK-5932,1 55943U 23037AF  23149.93309603  .00001485  00000-0  14115-4 0  9997,2 55943  69.9966 335.3588 0003730 272.0007  88.0761 15.69932334 12018,6737.228,91.724,361.606,356.58,0.0
55943.0,STARLINK-5932,PAYLOAD,2023-05-30 15:12:56,15.69930374,0.0003384,69.9973,333.3898,262.5767,97.5044,-1.2461e-07,-2.28e-06,0.0,0 STARLINK-5932,1 55943U 23037AF  23150.63398309 -.00000228  00000-0 -12461-6 0  9997,2 55943  69.9973 333.3898 0003384 262.5767  97.5044 15.69930374 12123,6737.233,91.724,361.378,356.818,0.0
55943.0,STARLINK-5932,PAYLOAD,2023-05-30 21:19:56,15.69926097,0.000343,69.9974,332.6733,262.0213,98.0593,-3.3215e-06,-6.12e-06,0.0,0 STARLINK-5932,1 55943U 23037AF  23150.88885256 -.00000612  00000-0 -33215-5 0  9992,2 55943  69.9974 332.6733 0003430 262.0213  98.0593 15.69926097 11825,6737.245,91.724,361.421,356.8,0.0
55943.0,STARLINK-5932,PAYLOAD,2023-05-31 11:05:43,15.6992055,0.0003527,69.9965,331.0587,276.9117,83.1678,4.3865e-06,3.14e-06,0.0,0 STARLINK-5932,1 55943U 23037AF  23151.46230720  .00000314  00000-0  43865-5 0  9996,2 55943  69.9965 331.0587 0003527 276.9117  83.1678 15.69920550 12254,6737.261,91.724,361.503,356.75,0.0
55943.0,STARLINK-5932,PAYLOAD,2023-05-31 14:09:13,15.69917155,0.0003811,69.9965,330.7005,274.5697,85.5064,1.425e-05,1.5e-05,0.0,0 STARLINK-5932,1 55943U 23037AF  23151.58973952  .00001500  00000-0  14250-4 0  9993,2 55943  69.9965 330.7005 0003811 274.5697  85.5064 15.69917155 11934,6737.271,91.725,361.704,356.568,0.0
55943.0,STARLINK-5932,PAYLOAD,2023-05-31 21:47:58,15.69925366,0.0003633,69.9969,329.8043,274.4494,85.6287,1.3607e-06,-4.9e-07,0.0,0 STARLINK-5932,1 55943U 23037AF  23151.90832130 -.00000049  00000-0  13607-5 0  9995,2 55943  69.9969 329.8043 0003633 274.4494  85.6287 15.69925366 11981,6737.248,91.724,361.56,356.665,0.0
55943.0,STARLINK-5932,PAYLOAD,2023-06-01 05:26:44,15.69924987,0.0003715,69.9969,328.9094,273.5384,86.5387,-2.5985e-06,-5.26e-06,0.0,0 STARLINK-5932,1 55943U 23037AF  23152.22690504 -.00000526  00000-0 -25985-5 0  9991,2 55943  69.9969 328.9094 0003715 273.5384  86.5387 15.69924987 12032,6737.249,91.724,361.616,356.611,0.0
55943.0,STARLINK-5932,PAYLOAD,2023-06-02 10:30:02,15.69916764,0.0003855,69.9967,325.5055,273.4406,86.6349,-2.2162e-06,-4.8e-06,0.0,0 STARLINK-5932,1 55943U 23037AF  23153.43752866 -.00000480  00000-0 -22162-5 0  9998,2 55943  69.9967 325.5055 0003855 273.4406  86.6349 15.69916764 12560,6737.272,91.725,361.734,356.54,0.0
55943.0,STARLINK-5932,PAYLOAD,2023-06-02 13:33:32,15.69920996,0.0003808,69.9974,325.1474,274.1403,85.9357,-1.7042e-07,-2.34e-06,0.0,0 STARLINK-5932,1 55943U 23037AF  23153.56495984 -.00000234  00000-0 -17042-6 0  9996,2 55943  69.9974 325.1474 0003808 274.1403  85.9357 15.69920996 12240,6737.26,91.724,361.691,356.559,0.0
55943.0,STARLINK-5932,PAYLOAD,2023-06-02 18:08:47,15.69930426,0.0004222,69.9966,324.6098,273.3694,86.7018,9.6568e-06,9.48e-06,0.0,0 STARLINK-5932,1 55943U 23037AF  23153.75610151  .00000948  00000-0  96568-5 0  9991,2 55943  69.9966 324.6098 0004222 273.3694  86.7018 15.69930426 12614,6737.233,91.724,361.943,356.254,0.0
55943.0,STARLINK-5932,PAYLOAD,2023-06-02 21:12:17,15.69934043,0.0003935,69.9951,324.248,276.4681,83.6066,9.2627e-06,9.01e-06,0.0,0 STARLINK-5932,1 55943U 23037AF  23153.88353310  .00000901  00000-0  92627-5 0  9997,2 55943  69.9951 324.2480 0003935 276.4681  83.6066 15.69934043 12291,6737.223,91.724,361.739,356.437,0.0
55943.0,STARLINK-5932,PAYLOAD,2023-06-03 10:58:04,15.69924351,0.0003668,69.9962,322.6391,272.9379,87.1396,6.7722e-08,-2.05e-06,0.0,0 STARLINK-5932,1 55943U 23037AF  23154.45699106 -.00000205  00000-0  67722-7 0  9995,2 55943  69.9962 322.6391 0003668 272.9379  87.1396 15.69924351 12728,6737.25,91.724,361.587,356.644,0.0
55943.0,STARLINK-5932,PAYLOAD,2023-06-03 14:01:34,15.69924319,0.0003774,69.9969,322.2808,272.8483,87.2281,3.024e-07,-1.77e-06,0.0,0 STARLINK-5932,1 55943U 23037AF  23154.58442423 -.00000177  00000-0  30240-6 0  9999,2 55943  69.9969 322.2808 0003774 272.8483  87.2281 15.69924319 12400,6737.251,91.724,361.658,356.573,0.0
55943.0,STARLINK-5932,PAYLOAD,2023-06-03 20:08:34,15.69929555,0.0003857,69.9975,321.5654,268.7799,91.2955,4.5711e-06,3.37e-06,0.0,0 STARLINK-5932,1 55943U 23037AF  23154.83928557  .00000337  00000-0  45711-5 0  9999,2 55943  69.9975 321.5654 0003857 268.7799  91.2955 15.69929555 12448,6737.236,91.724,361.699,356.502,0.0
55943.0,STARLINK-5932,PAYLOAD,2023-06-04 14:29:36,15.69926346,0.0003806,69.9972,319.4125,279.3378,80.7387,2.423e-07,-1.84e-06,0.0,0 STARLINK-5932,1 55943U 23037AF  23155.60389922 -.00000184  00000-0  24230-6 0  9997,2 55943  69.9972 319.4125 0003806 279.3378  80.7387 15.69926346 12569,6737.245,91.724,361.674,356.546,0.0
55943.0,STARLINK-5932,PAYLOAD,2023-06-04 19:04:51,15.69926707,0.0002854,69.9987,318.8781,249.7789,110.31,1.0497e-05,1.05e-05,0.0,0 STARLINK-5932,1 55943U 23037AF  23155.79504565  .00001050  00000-0  10497-4 0  9999,2 55943  69.9987 318.8781 0002854 249.7789 110.3100 15.69926707 12930,6737.244,91.724,361.031,357.186,0.0
55943.0,STARLINK-5932,PAYLOAD,2023-06-04 20:36:35,15.69944937,0.0004053,69.9973,318.6979,267.1374,92.9358,2.918e-05,3.3e-05,0.0,0 STARLINK-5932,1 55943U 23037AF  23155.85874473  .00003300  00000-0  29180-4 0  9993,2 55943  69.9973 318.6979 0004053 267.1374  92.9358 15.69944937 12608,6737.192,91.723,361.787,356.326,0.0
55943.0,STARLINK-5932,PAYLOAD,2023-06-05 13:25:52,15.69930014,0.0003341,69.9978,316.7261,273.5578,86.5235,1.1706e-05,1.195e-05,0.0,0 STARLINK-5932,1 55943U 23037AF  23156.55964063  .00001195  00000-0  11706-4 0  9991,2 55943  69.9978 316.7261 0003341 273.5578  86.5235 15.69930014 12718,6737.234,91.724,361.35,356.848,0.0
55943.0,STARLINK-5932,PAYLOAD,2023-06-05 19:32:53,15.69933493,0.0003544,69.9975,316.01,271.4934,88.5856,4.2126e-06,2.94e-06,0.0,0 STARLINK-5932,1 55943U 23037AF  23156.81450592  .00000294  00000-0  42126-5 0  9997,2 55943  69.9975 316.0100 0003544 271.4934  88.5856 15.69933493 12757,6737.224,91.724,361.477,356.702,0.0
55943.0,STARLINK-5932,PAYLOAD,2023-06-06 13:53:55,15.69924491,0.0003564,69.9977,313.8607,275.4274,84.6515,-3.2462e-06,-6.03e-06,0.0,0 STARLINK-5932,1 55943U 23037AF  23157.57911735 -.00000603  00000-0 -32462-5 0  9990,2 55943  69.9977 313.8607 0003564 275.4274  84.6515 15.69924491 13218,6737.25,91.724,361.516,356.714,0.0
55943.0,STARLINK-5932,PAYLOAD,2023-06-06 20:00:55,15.69928349,0.0003524,69.9972,313.1435,279.4432,80.6365,-2.9339e-06,-5.66e-06,0.0,0 STARLINK-5932,1 55943U 23037AF  23157.83398127 -.00000566  00000-0 -29339-5 0  9990,2 55943  69.9972 313.1435 0003524 279.4432  80.6365 15.69928349 12912,6737.239,91.724,361.478,356.73,0.0
55943.0,STARLINK-5932,PAYLOAD,2023-06-07 09:46:42,15.69918604,0.0003577,69.9973,311.5317,271.2109,88.8677,-5.1484e-06,-8.32e-06,0.0,0 STARLINK-5932,1 55943U 23037AF  23158.40743514 -.00000832  00000-0 -51484-5 0  9990,2 55943  69.9973 311.5317 0003577 271.2109  88.8677 15.69918604 13003,6737.267,91.725,361.542,356.722,0.0
55943.0,STARLINK-5932,PAYLOAD,2023-06-07 14:21:57,15.69924807,0.0003307,69.9971,310.9939,272.6065,87.4752,1.8446e-06,9e-08,0.0,0 STARLINK-5932,1 55943U 23037AF  23158.59858059  .00000009  00000-0  18446-5 0  9996,2 55943  69.9971 310.9939 0003307 272.6065  87.4752 15.69924807 13372,6737.249,91.724,361.342,356.886,0.0
55943.0,STARLINK-5932,PAYLOAD,2023-06-07 18:57:11,15.69939317,0.0003876,69.9975,310.4553,259.9605,100.1153,2.132e-05,2.353e-05,0.0,0 STARLINK-5932,1 55943U 23037AF  23158.78971420  .00002353  00000-0  21320-4 0  9993,2 55943  69.9975 310.4553 0003876 259.9605 100.1153 15.69939317 13068,6737.208,91.723,361.684,356.461,0.0
55943.0,STARLINK-5932,PAYLOAD,2023-06-08 10:14:44,15.69922564,0.0003347,69.9967,308.6642,271.7785,88.3027,4.5181e-08,-2.07e-06,0.0,0 STARLINK-5932,1 55943U 23037AF  23159.42689882 -.00000207  00000-0  45181-7 0  9994,2 55943  69.9967 308.6642 0003347 271.7785  88.3027 15.69922564 13503,6737.256,91.724,361.376,356.866,0.0
55943.0,STARLINK-5932,PAYLOAD,2023-06-08 11:46:29,15.69922087,0.0003455,69.9967,308.4847,273.8801,86.2,-1.9258e-07,-2.36e-06,0.0,0 STARLINK-5932,1 55943U 23037AF  23159.49061588 -.00000236  00000-0 -19258-6 0  9996,2 55943  69.9967 308.4847 0003455 273.8801  86.2000 15.69922087 13171,6737.257,91.724,361.45,356.794,0.0
55943.0,STARLINK-5932,PAYLOAD,2023-06-08 13:18:14,15.69922317,0.0003499,69.9971,308.305,275.957,84.1227,8.6436e-07,-1.09e-06,0.0,0 STARLINK-5932,1 55943U 23037AF  23159.55433213 -.00000109  00000-0  86436-6 0  9991,2 55943  69.9971 308.3050 0003499 275.9570  84.1227 15.69922317 13180,6737.256,91.724,361.479,356.764,0.0
55943.0,STARLINK-5932,PAYLOAD,2023-06-08 19:25:14,15.69931798,0.000424,69.9955,307.5894,279.0245,81.0471,3.1905e-06,1.7e-06,0.0,0 STARLINK-5932,1 55943U 23037AF  23159.80919137  .00000170  00000-0  31905-5 0  9990,2 55943  69.9955 307.5894 0004240 279.0245  81.0471 15.69931798 13560,6737.229,91.724,361.951,356.238,0.0
55943.0,STARLINK-5932,PAYLOAD,2023-06-09 10:42:46,15.69920173,0.0003363,69.9963,305.7988,274.6603,85.4208,4.3847e-07,-1.6e-06,0.0,0 STARLINK-5932,1 55943U 23037AF  23160.44636840 -.00000160  00000-0  43847-6 0  9998,2 55943  69.9963 305.7988 0003363 274.6603  85.4208 15.69920173 13322,6737.262,91.724,361.393,356.862,0.0
